{
  "type": "FeatureCollection",
  "features": [
    {
      "type": "Feature",
      "id": "india_eez_boundary",
      "geometry": {"type": "Polygon", "coordinates": [[[79.0,9.0],[79.5,9.5],[80.0,10.0],[80.5,9.8],[81.0,9.2],[80.5,8.8],[80.0,8.5],[79.5,8.6],[79.0,9.0]]]},
      "properties": {"name": "India-Sri Lanka Maritime Boundary", "type": "international_boundary", "severity": "danger"}
    },
    {
      "type": "Feature",
      "id": "gulf_of_mannar_sanctuary",
      "geometry": {"type": "Polygon", "coordinates": [[[78.5,8.5],[79.2,8.5],[79.2,9.2],[78.5,9.2],[78.5,8.5]]]},
      "properties": {"name": "Gulf of Mannar Marine Sanctuary", "type": "marine_sanctuary", "severity": "warning"}
    },
    {
      "type": "Feature",
      "id": "military_testing_block",
      "geometry": {"type": "Polygon", "coordinates": [[[82.0,12.0],[83.5,12.0],[83.5,13.5],[82.0,13.5],[82.0,12.0]]]},
      "properties": {"name": "Military Testing Block", "type": "military", "severity": "danger"}
    }
  ]
}
